[{"OBJECT_NAME":"STARLINK-30956","OBJECT_ID":"2023-186J","EPOCH":"2026-03-09T22:30:22.489920","MEAN_MOTION":15.26738843,"ECCENTRICITY":0.00015926,"INCLINATION":43.0024,"RA_OF_ASC_NODE":39.5665,"ARG_OF_PERICENTER":265.8868,"MEAN_ANOMALY":94.1802,"EPHEMERIS_TYPE":0,"CLASSIFICATION_TYPE":"U","NORAD_CAT_ID":58481,"ELEMENT_SET_NO":999,"REV_AT_EPOCH":12619,"BSTAR":8.7183935e-5,"MEAN_MOTION_DOT":2.079e-5,"MEAN_MOTION_DDOT":0},{"OBJECT_NAME":"COSMOS 2251 DEB","OBJECT_ID":"1993-036BAQ","EPOCH":"2026-03-02T18:09:22.308480","MEAN_MOTION":15.08453793,"ECCENTRICITY":0.0108476,"INCLINATION":73.8355,"RA_OF_ASC_NODE":183.1226,"ARG_OF_PERICENTER":266.0547,"MEAN_ANOMALY":92.8237,"EPHEMERIS_TYPE":0,"CLASSIFICATION_TYPE":"U","NORAD_CAT_ID":36441,"ELEMENT_SET_NO":999,"REV_AT_EPOCH":88171,"BSTAR":0.00067126775,"MEAN_MOTION_DOT":0.00011967,"MEAN_MOTION_DDOT":0}]
